[{"OBJECT_NAME":"OBJECT L","OBJECT_ID":"2023-085L","EPOCH":"2026-03-09T23:02:21.999840","MEAN_MOTION":15.29079976,"ECCENTRICITY":0.0005428,"INCLINATION":97.486,"RA_OF_ASC_NODE":178.8598,"ARG_OF_PERICENTER":50.8528,"MEAN_ANOMALY":309.3193,"EPHEMERIS_TYPE":0,"CLASSIFICATION_TYPE":"U","NORAD_CAT_ID":57014,"ELEMENT_SET_NO":999,"REV_AT_EPOCH":15144,"BSTAR":0.00063462603,"MEAN_MOTION_DOT":0.00017871,"MEAN_MOTION_DDOT":0},{"OBJECT_NAME":"STARLINK-35814","OBJECT_ID":"2025-268V","EPOCH":"2026-03-09T03:13:21.906912","MEAN_MOTION":15.27582152,"ECCENTRICITY":0.00011063,"INCLINATION":42.9983,"RA_OF_ASC_NODE":350.2959,"ARG_OF_PERICENTER":6.0102,"MEAN_ANOMALY":354.0763,"EPHEMERIS_TYPE":0,"CLASSIFICATION_TYPE":"U","NORAD_CAT_ID":66576,"ELEMENT_SET_NO":999,"REV_AT_EPOCH":1787,"BSTAR":0.001458703,"MEAN_MOTION_DOT":0.00040099,"MEAN_MOTION_DDOT":0}]
